name,address,city,state,country,postal_code,phone
Loftus Versveld,1 Bloubulle Rd,Pretoria,Gauteng,South Africa,0001,0121005555
The Midway,100 Pacific Highway,San Fransisco,California,USA,940123,5151005555
Da Klub,1501 Seattle Blvd,New Orleans,Lousiana,USA,210132,4987764433
aumbach LLC,0164 Sachtjen Circle,Wuhao,,China,,320-952-5469
Hudson-Mann,988 Ilene Way,Ibiporã,,Brazil,86200-000,841-814-5399
"Kohler, Pfannerstill and Johnston",01500 Sheridan Hill,Zverevo,,Russia,347890,341-368-8726
Wolff-Bogan,86910 Sherman Lane,Ping’an,,China,,718-889-8932
Lueilwitz Group,63737 Bartelt Alley,Toyoshina,,Japan,399-8205,540-364-3375
Hintz-Stoltenberg,0 Daystar Terrace,Weixing,,China,,315-847-1610
"Metz, Bogisich and Nitzsche",99 Stoughton Parkway,Goiana,,Brazil,55900-000,333-751-6366
Johnston Inc,194 Graedel Hill,Holoriang,,Indonesia,,472-268-4605
Rogahn-Barrows,86117 Fairview Junction,Thị Trấn Bắc Yên,,Vietnam,,699-655-8711
Sauer-Runolfsson,16835 Melody Avenue,Sui’an,,China,,768-533-5142
Quigley-Hudson,179 Cambridge Junction,Mali Iđoš,,Serbia,,611-244-3010
"Hartmann, Swaniawski and Hartmann",0052 Vermont Place,Kangxung,,China,,190-383-3827
Keeling-Kulas,1730 Union Park,Faqīrwāli,,Pakistan,50601,264-555-2898
"Hills, Goyette and O'Keefe",61284 Graedel Parkway,Pyt-Yakh,,Russia,628389,803-240-4035
Bashirian LLC,1942 Knutson Way,Zharkent,,Kazakhstan,,793-281-4957
Herman LLC,2839 Rowland Road,Krzeczów,,Poland,32-765,858-283-5203
"Luettgen, Turcotte and Jaskolski",44 Talmadge Way,Riit,,Indonesia,,979-645-1705
Aufderhar and Sons,0 Hagan Lane,Waru,,Indonesia,,386-576-7863
"Schulist, Leuschke and Windler",706 Reinke Street,Tsukawaki,,Japan,879-4413,702-288-4083
Legros-Stracke,40 Old Shore Drive,Privlaka,,Croatia,32251,765-519-2928
"Lynch, Bayer and Kub",5 Calypso Street,Extrema,,Brazil,37640-000,249-935-9620
Kessler Inc,4 Canary Lane,Douala,,Cameroon,,204-623-0996
Koepp-Keeling,68 Old Shore Terrace,Shishan,,China,,663-594-8381
Swift-Abbott,13 Eastwood Point,Inari,,Finland,99871,791-126-8738
Hoppe and Sons,82 Farwell Terrace,Jardin,Tamaulipas,Mexico,87330,465-127-7069
"Gaylord, Ledner and Pfeffer",963 Commercial Park,Illela,,Nigeria,,693-844-2545
Oberbrunner Inc,64 Russell Plaza,Onsŏng,,North Korea,,430-912-5405
"Homenick, Predovic and Kuhic",01363 Pearson Way,Dasha,,China,,527-573-5881
Hilll Group,4 Pepper Wood Parkway,Candating,,Philippines,2012,685-474-1493
Kub Inc,30636 Grim Junction,São Bento,Braga,Portugal,4730-560,628-455-5563
Shanahan and Sons,5845 Mccormick Trail,Dongguang,,China,,881-206-8399
"Dare, Heidenreich and Daniel",9944 Acker Plaza,Negeriagung,,Indonesia,,139-268-8750
Lehner-Russel,644 Commercial Trail,Dondar Quşçu,,Azerbaijan,,719-603-1324
Smith Group,2507 Hansons Alley,Bhairab Bāzār,,Bangladesh,3521,520-615-6803
"Hauck, Wyman and Rice",15 High Crossing Terrace,Pizarrete,,Dominican Republic,10608,866-717-7670
Ruecker-Watsica,065 Express Lane,Shangyuan,,China,,468-591-8872
"Keebler, Sipes and Hartmann",32 Paget Circle,Pasirsongket Dua,,Indonesia,,209-616-4714
Wuckert and Sons,345 Judy Place,Burauen,,Philippines,6516,148-467-3213
DuBuque Inc,6786 Mesta Crossing,Zhiletovo,,Russia,249849,924-694-0981
"Feeney, Baumbach and White",665 Thackeray Court,Nogueira,Porto,Portugal,4605-410,412-767-1338
"Wilkinson, Parker and Cummerata",2761 Arizona Circle,Zungeru,,Nigeria,,328-652-3177
Connelly-Spinka,72045 Del Mar Lane,West Kelowna,British Columbia,Canada,V1Z,201-798-4802
Swaniawski and Sons,896 Arkansas Hill,Oras,,Philippines,6818,369-572-9625
Ziemann Group,98 Mendota Lane,Trondheim,Sor-Trondelag,Norway,7042,493-169-7835
Greenfelder-Rolfson,46668 Upham Drive,Konstantinovo,,Russia,141340,309-575-5078
"Maggio, Bruen and Bins",419 Stoughton Alley,Bridgetown,,Barbados,,841-834-2518
"Huels, Stark and Murazik",08647 Linden Hill,Datong,,China,,610-273-2399
Wolff Group,48359 Sycamore Parkway,Wilga,,Poland,08-470,718-926-4415
"Lakin, Spinka and Bailey",34 Stephen Plaza,Pueblo Nuevo,,Peru,,385-276-2601
Bruen Group,6 Meadow Ridge Drive,Zhujiatai,,China,,451-842-2566
Welch Group,84084 Kennedy Crossing,Xindi,,China,,532-824-3037
Witting LLC,988 Manitowish Court,Santyoku,,South Korea,,766-965-1184
Kutch-Bosco,98 Anderson Way,Częstochowa,,Poland,42-294,865-294-9059
"Prosacco, Beahan and Hintz",21 Roxbury Circle,Volkhovskiy,,Russia,173501,652-429-6238
Spencer-Sawayn,5 Graceland Drive,Kyosai,,South Korea,,378-714-5393
Lindgren and Sons,11259 Lakeland Street,Manganitu,,Indonesia,,133-845-0815
McGlynn Inc,0 Rigney Terrace,Honghua’erji,,China,,579-441-1904
Howe Group,0940 Hanson Hill,Galyugayevskaya,,Russia,357859,508-198-7189
"Mertz, Mertz and Klein",265 Annamark Lane,Wesoła,,Poland,36-231,327-688-2502
Pouros Group,243 Dwight Trail,Saitama,,Japan,343-0801,560-729-5358
"Labadie, Hirthe and Rogahn",57 Gina Terrace,Calais,Nord-Pas-de-Calais,France,62907 CEDEX,150-447-0186
Spencer-Johnson,0 American Ash Park,Zizhao,,China,,217-348-5349
Koss-Hickle,14 Hovde Terrace,Dzvinogrud,,Ukraine,,814-181-5188
"Raynor, Paucek and Hoppe",940 Eliot Place,Salcedo,,Dominican Republic,11005,114-389-6178
"Fisher, Bins and Hills",900 Ridgeway Alley,Berdyans’k,,Ukraine,,545-365-6835
Howell-Thiel,44 4th Plaza,Paarl,,South Africa,7681,452-482-2971
Koepp-Hauck,4 Declaration Crossing,Lékoni,,Gabon,,157-666-1455
Beahan-Turner,588 5th Alley,Hanover,Ontario,Canada,N4N,618-427-2311
Hilll and Sons,1035 Parkside Point,Bumpe,,Sierra Leone,,575-293-8554
Wisoky-Russel,4 Red Cloud Avenue,Atocha,,Bolivia,,948-954-0888
"O'Reilly, Kling and Lebsack",38 Arrowood Parkway,Santo Adrião Vizela,Braga,Portugal,4815-668,490-515-9042
Barrows Inc,1547 Laurel Park,Litein,,Kenya,,905-568-5977
"Treutel, Dare and Runolfsson",63298 Dunning Junction,Ciomas,,Indonesia,,746-394-0570
"Farrell, Schamberger and Bosco",19446 East Road,Maple Creek,Saskatchewan,Canada,P3L,593-183-3158
"Mosciski, Mueller and Schmeler",350 Sheridan Place,Połaniec,,Poland,28-230,929-669-3360
"Klein, Ruecker and Wintheiser",76 Mifflin Pass,Fulu,,China,,124-304-3341
"Hills, Cruickshank and Zieme",60 Sugar Circle,Sidi Yahya Ou Saad,,Morocco,,299-964-7573
Dare-Leuschke,2 Lyons Drive,Xingang,,China,,710-273-3501
Morar Group,99744 Victoria Crossing,Pokrovka,,Russia,182160,990-726-0373
"Luettgen, Kemmer and Buckridge",776 Evergreen Street,Halle,Sachsen-Anhalt,Germany,06126,338-772-0426
Wolf-Jenkins,78349 Reinke Terrace,Xingfu,,China,,749-904-5443
Tillman-Bradtke,4 Lakewood Alley,Tvarožná,,Czech Republic,664 05,483-234-2674
D'Amore and Sons,364 Kipling Terrace,Yamaga,,Japan,874-0818,582-515-8016
"Bogan, Ryan and O'Kon",4 Welch Hill,Nevel’,,Russia,182520,944-613-8302
"Gislason, Doyle and Keeling",3874 Sunfield Way,Cibulakan,,Indonesia,,826-492-7844
Pacocha Group,81 Spohn Trail,Kokas,,Indonesia,,648-757-4341
"Kreiger, Paucek and Hessel",82 Barnett Avenue,Chimbas,,Argentina,5413,892-439-7520
"Koelpin, Ullrich and Kub",4 Esch Plaza,Pedro García,,Dominican Republic,11604,728-594-7092
O'Keefe-Cassin,3993 Eastlawn Trail,Bandong,,China,,996-158-9089
Crona Group,9 Manitowish Lane,Rancagua,,Chile,,598-671-6952
"Stiedemann, Morissette and Beatty",85526 Kingsford Circle,Hongsihu,,China,,710-399-5034
Schmidt-Gutmann,152 Dayton Road,Houndé,,Burkina Faso,,843-304-0160
"Bechtelar, Koepp and Leffler",05 Kenwood Lane,Jingouhe,,China,,383-445-8374
Legros-Raynor,095 Fairfield Terrace,Boussé,,Burkina Faso,,490-188-0125
"Blick, Farrell and Walsh",075 Londonderry Avenue,Valašská Polanka,,Czech Republic,756 11,402-880-7537
Kuhn-Farrell,678 Lillian Drive,Xinlong,,China,,965-931-1994
Bernhard LLC,9971 Birchwood Lane,Quế Sơn,,Vietnam,,581-495-5102
Corwin-Ondricka,6 John Wall Place,Boronów,,Poland,42-283,307-650-5890
"Terry, Morissette and Batz",519 Merchant Park,Krajan Karangwage,,Indonesia,,683-541-4961
"Roob, Hudson and Thiel",207 Straubel Plaza,Grangwav,,Haiti,,971-242-3931